KINEIS-2D               
1 62930U 25028C   26186.08837007  .00002400  00000+0  35794-3 0  9999
2 62930  97.9277 238.1892 0004367 131.5989 228.5595 14.75748616 75357
KINEIS-2E               
1 62931U 25028D   26186.10948322  .00002118  00000+0  30713-3 0  9998
2 62931  97.8945 237.3609 0002110 102.5662 257.5784 14.77069902 75422
KINEIS-2A               
1 62932U 25028E   26186.09137144  .00002002  00000+0  31649-3 0  9990
2 62932  98.1292 241.5030 0006023 107.8316 252.3549 14.73434079 75247
KINEIS-2B               
1 62934U 25028G   26186.13663709  .00001936  00000+0  30605-3 0  9994
2 62934  97.9659 238.6726 0005033  96.1153 264.0629 14.73435428 75306
KINEIS-4E               
1 63300U 25056A   26186.32706403  .00002124  00000+0  34383-3 0  9990
2 63300  97.9060 309.7207 0003078 102.3741 257.7811 14.72283109 69798
KINEIS-4C               
1 63301U 25056B   26186.33958830  .00002214  00000+0  35794-3 0  9992
2 63301  97.9114 309.9750 0002177 256.3312 103.7654 14.72304786 69809
KINEIS-4D               
1 63302U 25056C   26186.34339985  .00002205  00000+0  35568-3 0  9997
2 63302  97.9035 309.9598 0001017 278.3707  81.7385 14.72407148 69808
KINEIS-4A               
1 63303U 25056D   26186.31017646  .00002158  00000+0  34899-3 0  9995
2 63303  97.9130 309.8690 0001359 170.8792 189.2441 14.72314250 69792
KINEIS-4B               
1 63304U 25056E   26186.29286118  .00002142  00000+0  34646-3 0  9998
2 63304  97.9141 309.9081 0004519 227.5631 132.5195 14.72308807 69780
