{"fetched_at":"2026-07-05T12:48:04.291Z","source":"https://celestrak.org/NORAD/elements/gp.php?NAME=KINEIS&FORMAT=JSON","constellation":"kineis","records":[{"OBJECT_NAME":"KINEIS-2D","OBJECT_ID":"2025-028C","EPOCH":"2026-07-05T02:07:15.174048","CLASSIFICATION_TYPE":"U","MEAN_MOTION":14.75748616,"ECCENTRICITY":0.00043679,"INCLINATION":97.9277,"RA_OF_ASC_NODE":238.1892,"ARG_OF_PERICENTER":131.5989,"MEAN_ANOMALY":228.5595,"EPHEMERIS_TYPE":0,"NORAD_CAT_ID":62930,"ELEMENT_SET_NO":999,"REV_AT_EPOCH":7535,"BSTAR":0.00035794284,"MEAN_MOTION_DOT":0.000024,"MEAN_MOTION_DDOT":0},{"OBJECT_NAME":"KINEIS-2E","OBJECT_ID":"2025-028D","EPOCH":"2026-07-05T02:37:39.350208","CLASSIFICATION_TYPE":"U","MEAN_MOTION":14.77069902,"ECCENTRICITY":0.00021106,"INCLINATION":97.8945,"RA_OF_ASC_NODE":237.3609,"ARG_OF_PERICENTER":102.5662,"MEAN_ANOMALY":257.5784,"EPHEMERIS_TYPE":0,"NORAD_CAT_ID":62931,"ELEMENT_SET_NO":999,"REV_AT_EPOCH":7542,"BSTAR":0.00030712886,"MEAN_MOTION_DOT":0.00002118,"MEAN_MOTION_DDOT":0},{"OBJECT_NAME":"KINEIS-2A","OBJECT_ID":"2025-028E","EPOCH":"2026-07-05T02:11:34.492416","CLASSIFICATION_TYPE":"U","MEAN_MOTION":14.73434079,"ECCENTRICITY":0.00060232,"INCLINATION":98.1292,"RA_OF_ASC_NODE":241.503,"ARG_OF_PERICENTER":107.8316,"MEAN_ANOMALY":252.3549,"EPHEMERIS_TYPE":0,"NORAD_CAT_ID":62932,"ELEMENT_SET_NO":999,"REV_AT_EPOCH":7524,"BSTAR":0.00031649496,"MEAN_MOTION_DOT":0.00002002,"MEAN_MOTION_DDOT":0},{"OBJECT_NAME":"KINEIS-2B","OBJECT_ID":"2025-028G","EPOCH":"2026-07-05T03:16:45.444576","CLASSIFICATION_TYPE":"U","MEAN_MOTION":14.73435428,"ECCENTRICITY":0.00050334,"INCLINATION":97.9659,"RA_OF_ASC_NODE":238.6726,"ARG_OF_PERICENTER":96.1153,"MEAN_ANOMALY":264.0629,"EPHEMERIS_TYPE":0,"NORAD_CAT_ID":62934,"ELEMENT_SET_NO":999,"REV_AT_EPOCH":7530,"BSTAR":0.0003060538,"MEAN_MOTION_DOT":0.00001936,"MEAN_MOTION_DDOT":0},{"OBJECT_NAME":"KINEIS-4E","OBJECT_ID":"2025-056A","EPOCH":"2026-07-05T07:50:58.332192","CLASSIFICATION_TYPE":"U","MEAN_MOTION":14.72283109,"ECCENTRICITY":0.00030785,"INCLINATION":97.906,"RA_OF_ASC_NODE":309.7207,"ARG_OF_PERICENTER":102.3741,"MEAN_ANOMALY":257.7811,"EPHEMERIS_TYPE":0,"NORAD_CAT_ID":63300,"ELEMENT_SET_NO":999,"REV_AT_EPOCH":6979,"BSTAR":0.00034383343,"MEAN_MOTION_DOT":0.00002124,"MEAN_MOTION_DDOT":0},{"OBJECT_NAME":"KINEIS-4C","OBJECT_ID":"2025-056B","EPOCH":"2026-07-05T08:09:00.429120","CLASSIFICATION_TYPE":"U","MEAN_MOTION":14.72304786,"ECCENTRICITY":0.00021774,"INCLINATION":97.9114,"RA_OF_ASC_NODE":309.975,"ARG_OF_PERICENTER":256.3312,"MEAN_ANOMALY":103.7654,"EPHEMERIS_TYPE":0,"NORAD_CAT_ID":63301,"ELEMENT_SET_NO":999,"REV_AT_EPOCH":6980,"BSTAR":0.00035793782,"MEAN_MOTION_DOT":0.00002214,"MEAN_MOTION_DDOT":0},{"OBJECT_NAME":"KINEIS-4D","OBJECT_ID":"2025-056C","EPOCH":"2026-07-05T08:14:29.747040","CLASSIFICATION_TYPE":"U","MEAN_MOTION":14.72407148,"ECCENTRICITY":0.00010177,"INCLINATION":97.9035,"RA_OF_ASC_NODE":309.9598,"ARG_OF_PERICENTER":278.3707,"MEAN_ANOMALY":81.7385,"EPHEMERIS_TYPE":0,"NORAD_CAT_ID":63302,"ELEMENT_SET_NO":999,"REV_AT_EPOCH":6980,"BSTAR":0.00035567962,"MEAN_MOTION_DOT":0.00002205,"MEAN_MOTION_DDOT":0},{"OBJECT_NAME":"KINEIS-4A","OBJECT_ID":"2025-056D","EPOCH":"2026-07-05T07:26:39.246144","CLASSIFICATION_TYPE":"U","MEAN_MOTION":14.7231425,"ECCENTRICITY":0.00013592,"INCLINATION":97.913,"RA_OF_ASC_NODE":309.869,"ARG_OF_PERICENTER":170.8792,"MEAN_ANOMALY":189.2441,"EPHEMERIS_TYPE":0,"NORAD_CAT_ID":63303,"ELEMENT_SET_NO":999,"REV_AT_EPOCH":6979,"BSTAR":0.00034899332,"MEAN_MOTION_DOT":0.00002158,"MEAN_MOTION_DDOT":0},{"OBJECT_NAME":"KINEIS-4B","OBJECT_ID":"2025-056E","EPOCH":"2026-07-05T07:01:43.205952","CLASSIFICATION_TYPE":"U","MEAN_MOTION":14.72308807,"ECCENTRICITY":0.00045193,"INCLINATION":97.9141,"RA_OF_ASC_NODE":309.9081,"ARG_OF_PERICENTER":227.5631,"MEAN_ANOMALY":132.5195,"EPHEMERIS_TYPE":0,"NORAD_CAT_ID":63304,"ELEMENT_SET_NO":999,"REV_AT_EPOCH":6978,"BSTAR":0.00034646247,"MEAN_MOTION_DOT":0.00002142,"MEAN_MOTION_DDOT":0}]}
